[{"OBJECT_NAME":"STARLINK-5770","OBJECT_ID":"2023-042AS","EPOCH":"2026-03-09T22:00:01.999584","MEAN_MOTION":15.08680483,"ECCENTRICITY":0.00015485,"INCLINATION":43,"RA_OF_ASC_NODE":41.7608,"ARG_OF_PERICENTER":288.3925,"MEAN_ANOMALY":145.2571,"EPHEMERIS_TYPE":0,"CLASSIFICATION_TYPE":"U","NORAD_CAT_ID":56026,"ELEMENT_SET_NO":999,"REV_AT_EPOCH":573,"BSTAR":0.0037328186,"MEAN_MOTION_DOT":0.00059794,"MEAN_MOTION_DDOT":0},{"OBJECT_NAME":"ICEYE-X38","OBJECT_ID":"2024-043C","EPOCH":"2026-03-09T22:31:51.164832","MEAN_MOTION":15.11764469,"ECCENTRICITY":0.00034523,"INCLINATION":97.8238,"RA_OF_ASC_NODE":210.1187,"ARG_OF_PERICENTER":76.8106,"MEAN_ANOMALY":283.3508,"EPHEMERIS_TYPE":0,"CLASSIFICATION_TYPE":"U","NORAD_CAT_ID":59100,"ELEMENT_SET_NO":999,"REV_AT_EPOCH":9667,"BSTAR":0.00052269951,"MEAN_MOTION_DOT":8.853e-5,"MEAN_MOTION_DDOT":0}]
